[{"OBJECT_NAME":"STARLINK-1277","OBJECT_ID":"2020-019K","EPOCH":"2026-03-10T00:00:02.999808","MEAN_MOTION":15.48940207,"ECCENTRICITY":0.00040314,"INCLINATION":53.0509,"RA_OF_ASC_NODE":151.1274,"ARG_OF_PERICENTER":12.6993,"MEAN_ANOMALY":253.0952,"EPHEMERIS_TYPE":0,"CLASSIFICATION_TYPE":"U","NORAD_CAT_ID":45369,"ELEMENT_SET_NO":999,"REV_AT_EPOCH":575,"BSTAR":0.002005627,"MEAN_MOTION_DOT":0.00111275,"MEAN_MOTION_DDOT":0},{"OBJECT_NAME":"STARLINK-1810","OBJECT_ID":"2020-073AR","EPOCH":"2026-03-10T00:00:02.999808","MEAN_MOTION":15.46905484,"ECCENTRICITY":0.00036204,"INCLINATION":53.0474,"RA_OF_ASC_NODE":230.4969,"ARG_OF_PERICENTER":174.4348,"MEAN_ANOMALY":86.5459,"EPHEMERIS_TYPE":0,"CLASSIFICATION_TYPE":"U","NORAD_CAT_ID":46709,"ELEMENT_SET_NO":999,"REV_AT_EPOCH":575,"BSTAR":0.002131862,"MEAN_MOTION_DOT":0.00110175,"MEAN_MOTION_DDOT":0}]
