STARLINK-1277           
1 45369U 20019K   26069.00003471  .00111275  00000+0  20056-2 0  9998
2 45369  53.0509 151.1274 0004031  12.6993 253.0952 15.48940207  5753
STARLINK-1810           
1 46709U 20073AR  26069.00003471  .00110175  00000+0  21319-2 0  9998
2 46709  53.0474 230.4969 0003620 174.4348  86.5459 15.46905484  5756
